SCD 1                   
1 22490U 93009B   17324.74707062  .00000235  00000-0  14467-4 0  9994
2 22490  24.9706  59.6756 0042918 187.3059 309.8014 14.44506055308260
TECHSAT 1B (GO-32)      
1 25397U 98043D   17324.85549298  .00000003  00000-0  20288-4 0  9994
2 25397  98.6266 263.9960 0000161 259.9917 100.1243 14.23634053  6086
SCD 2                   
1 25504U 98060A   17324.26520594  .00000240  00000-0  16791-4 0  9993
2 25504  24.9957 266.7753 0017111 213.7664 265.9285 14.44025422  7529
LANDSAT 7               
1 25682U 99020A   17324.76097933  .00000050  00000-0  21184-4 0  9999
2 25682  98.1951  33.6128 0000700  61.8387 298.2886 14.57117681989393
DLR-TUBSAT              
1 25757U 99029B   17324.72079162 -.00000035  00000-0  26345-5 0  9990
2 25757  98.4065 236.6638 0013919 175.3079 184.8255 14.51370886979178
QUIKSCAT                
1 25789U 99034A   17324.51329145 -.00000008  00000-0  14595-4 0  9990
2 25789  98.6027 150.6681 0000517  27.5512 332.5697 14.27289988959496
TERRA                   
1 25994U 99068A   17324.77147854 -.00000082  00000-0 -81477-5 0  9995
2 25994  98.2185  37.5491 0000946  74.5626 285.5659 14.57113818953479
MAROC-TUBSAT            
1 27004U 01056D   17324.41073185 -.00000036  00000-0  89953-5 0  9990
2 27004  99.3810 100.1149 0019020 291.8642 101.6754 13.70125660797441
AQUA                    
1 27424U 02022A   17324.87228187  .00000174  00000-0  48722-4 0  9994
2 27424  98.2199 263.9240 0001813  30.5471  37.2544 14.57106539827090
IRS-P6 (RESOURCESAT-1)  
1 28051U 03046A   17324.78965126  .00000014  00000-0  20549-4 0  9999
2 28051  98.5758  39.0331 0055202 293.7242  65.8149 14.34138538731703
SHIYAN 1 (SY-1)         
1 28220U 04012A   17324.47717654  .00000714  00000-0  63225-4 0  9993
2 28220  97.7162 278.8598 0008650 340.3370  19.7518 14.99380032739711
FORMOSAT-2 (ROCSAT 2)   
1 28254U 04018A   17324.83776765  .00000124  00000-0  11201-3 0  9995
2 28254  98.8595  19.7683 0002533  92.0844  43.1439 14.00721789690526
AURA                    
1 28376U 04026A   17324.86499880  .00000176  00000-0  49206-4 0  9996
2 28376  98.2200 266.0806 0001135  50.7281 309.4018 14.57110349710132
IRS-P5 (CARTOSAT-1)     
1 28649U 05017A   17324.77796004  .00000169  00000-0  26933-4 0  9992
2 28649  97.8473  36.6036 0000540 233.6835 126.4329 14.83457384679198
SINAH 1                 
1 28893U 05043D   17324.87507336  .00000021  00000-0  13121-4 0  9993
2 28893  97.8939 115.6775 0015698  23.9452 336.2476 14.61455815643333
EROS B                  
1 29079U 06014A   17324.81183633  .00002838  00000-0  12695-3 0  9995
2 29079  97.3691  82.4946 0004211  23.0959  97.0803 15.22096152642207
RESURS-DK 1             
1 29228U 06021A   17324.85578963  .00000239  00000-0  25462-4 0  9997
2 29228  69.9368  59.4559 0001625 123.5766 236.5550 15.02248259631629
ARIRANG-2 (KOMPSAT-2)   
1 29268U 06031A   17324.80902764  .00000183  00000-0  45516-4 0  9997
2 29268  98.0838 220.8368 0016626 231.3265 128.6451 14.62308871603889
LAPAN-TUBSAT            
1 29709U 07001A   17324.75947210  .00000061  00000-0  14030-4 0  9996
2 29709  97.7242 293.9252 0011778 306.7096  53.3040 14.82093692587174
CARTOSAT-2 (IRS-P7)     
1 29710U 07001B   17324.84122418 -.00000002  00000-0  66997-5 0  9999
2 29710  97.9072  23.3636 0002282  59.1490 300.9911 14.78696348586345
HAIYANG-1B              
1 31113U 07010A   17324.85406061 -.00000012  00000-0  11865-4 0  9993
2 31113  98.5391  17.1844 0015060 102.3022 257.9840 14.30185985553869
COSMO-SKYMED 1          
1 31598U 07023A   17324.79802924 -.00000096  00000-0 -54617-5 0  9991
2 31598  97.8867 146.2651 0001516  87.4539 272.6869 14.82153708565642
TERRASAR-X              
1 31698U 07026A   17324.30958333 -.00000998  00000-0 -44350-4 0  9991
2 31698  97.4453 329.7531 0002067  71.5684 117.5150 15.19145141578571
WORLDVIEW-1 (WV-1)      
1 32060U 07041A   17324.82607352  .00001553  00000-0  66162-4 0  9992
2 32060  97.3750  82.4969 0002229  44.7304  73.2518 15.24450208566115
YAOGAN 3                
1 32289U 07055A   17324.86939855  .00000123  00000-0  22737-4 0  9992
2 32289  98.0031 326.4835 0001538  97.4038 262.7333 14.80858075541929
COSMO-SKYMED 2          
1 32376U 07059A   17324.76425874  .00000293  00000-0  43332-4 0  9995
2 32376  97.8862 146.2302 0001389  77.6779 282.4576 14.82157536538388
RADARSAT-2              
1 32382U 07061A   17324.90509025  .00000214  00000-0  10000-3 0  9990
2 32382  98.5761 330.2286 0001384  75.4863 345.1837 14.29985170518695
CARTOSAT-2A             
1 32783U 08021A   17324.81878386 -.00000350  00000-0 -40703-4 0  9998
2 32783  97.9089  23.4472 0013175 164.4168 195.7444 14.78675358516286
JASON-2 (OSTM)          
1 33105U 08032A   17324.59044895 -.00000066  00000-0 -15460-4 0  9990
2 33105  66.0389 153.2691 0007418 267.6386 162.7712 12.87626836440666
RAPIDEYE 2              
1 33312U 08040A   17324.80335573  .00000108  00000-0  21023-4 0  9996
2 33312  97.8080  41.5228 0011828 195.0720 165.0148 14.79847122498531
RAPIDEYE 5              
1 33313U 08040B   17324.82668443  .00000068  00000-0  15801-4 0  9996
2 33313  97.8191  39.7399 0018428  78.4159 281.9104 14.79844822498484
RAPIDEYE 1              
1 33314U 08040C   17324.74757094  .00000093  00000-0  19156-4 0  9994
2 33314  97.8093  41.1281 0022827 212.9746 147.0045 14.79845186498512
RAPIDEYE 3              
1 33315U 08040D   17324.78353073  .00000098  00000-0  19722-4 0  9992
2 33315  97.8212  39.4242 0012634 145.8681 214.3339 14.79846659498486
RAPIDEYE 4              
1 33316U 08040E   17324.77080812  .00000074  00000-0  16577-4 0  9999
2 33316  97.8251  39.0494 0012979  94.8180 265.4513 14.79843862498477
HUANJING 1A (HJ-1A)     
1 33320U 08041A   17324.75906487  .00000222  00000-0  38801-4 0  9997
2 33320  97.9181  26.7435 0024815 239.4090 120.4680 14.76859499495890
HUANJING 1B (HJ-1B)     
1 33321U 08041B   17324.75683002  .00000230  00000-0  39783-4 0  9992
2 33321  97.9237  28.0711 0033204 256.6076 103.1437 14.76941034495886
GEOEYE 1                
1 33331U 08042A   17324.75536997 -.00000266  00000-0 -41536-4 0  9994
2 33331  98.0966  37.4876 0010369 127.4664 232.7495 14.64233012492011
THEOS                   
1 33396U 08049A   17324.80760311  .00000079  00000-0  58018-4 0  9990
2 33396  98.7601  30.0378 0001204  93.6413  44.2495 14.20009281473707
COSMO-SKYMED 3          
1 33412U 08054A   17324.81908053 -.00001185  00000-0 -14239-3 0  9990
2 33412  97.8867 146.2847 0001522  84.2175 275.9207 14.82149271490856
YAOGAN 4                
1 33446U 08061A   17324.84201778  .00000155  00000-0  28915-4 0  9999
2 33446  97.6053 312.7248 0016629 147.3374 212.8869 14.76718554483146
GOSAT (IBUKI)           
1 33492U 09002A   17324.84689037  .00000112  00000-0  28256-4 0  9995
2 33492  98.1358  75.2950 0001644  85.2326 274.9075 14.67515223472807
YAOGAN 6                
1 34839U 09021A   17324.87936077  .00000958  00000-0  39543-4 0  9993
2 34839  97.1238   8.3111 0030120 122.8660 237.5485 15.25937528476484
DEIMOS-1                
1 35681U 09041A   17324.71620331 -.00000110  00000-0 -99932-5 0  9998
2 35681  97.9317 213.2624 0001887 131.2255 228.9122 14.71698922446160
DUBAISAT-1              
1 35682U 09041B   17324.85986490  .00000205  00000-0  43108-4 0  9991
2 35682  97.7754 177.9674 0012144  20.0265 340.1422 14.68629268445206
OCEANSAT-2              
1 35931U 09051A   17324.85720246  .00000140  00000-0  46705-4 0  9998
2 35931  98.3100  57.4979 0003450  76.2377 283.9201 14.50851712432175
WORLDVIEW-2 (WV-2)      
1 35946U 09055A   17324.81802256  .00000006  00000-0  16493-4 0  9998
2 35946  98.4910  39.3640 0001126 303.9456  56.1627 14.37571608426017
SMOS                    
1 36036U 09059A   17324.52221777  .00000080  00000-0  39451-4 0  9995
2 36036  98.4420 149.9939 0001350  88.6587 271.4756 14.39777594422974
YAOGAN 7                
1 36110U 09069A   17324.82038412  .00000098  00000-0  22615-4 0  9997
2 36110  98.2300 126.1617 0023954 337.0377  22.9768 14.75083565427979
TANDEM-X                
1 36605U 10030A   17322.24510516  .00001857  00000-0  91555-4 0  9993
2 36605  97.4451 327.7198 0002214  75.0996 350.7410 15.19161833411008
CARTOSAT-2B             
1 36795U 10035A   17324.78832003  .00000087  00000-0  18861-4 0  9990
2 36795  97.9057  23.2049 0013190 241.9971 117.9895 14.78684209397329
YAOGAN 10               
1 36834U 10038A   17324.75680116  .00000109  00000-0  20964-4 0  9992
2 36834  97.9415 319.5982 0001522  81.4836 278.6546 14.80817571393654
COSMO-SKYMED 4          
1 37216U 10060A   17324.78114247  .00000061  00000-0  14189-4 0  9991
2 37216  97.8872 146.2455 0001558  74.4228 285.7155 14.82151389380933
HAIYANG 2A              
1 37781U 11043A   17324.83154490 -.00001289  00000-0 -12261-2 0  9992
2 37781  99.3273 333.4361 0000764  21.0861 339.0298 13.78713501315569
RASAT                   
1 37791U 11044D   17324.85155793  .00000066  00000-0  21608-4 0  9990
2 37791  98.1339  54.9710 0021986 352.1659   7.9197 14.64634593334700
MEGHA-TROPIQUES         
1 37838U 11058A   17324.12658271  .00000338  00000-0  41846-4 0  9994
2 37838  19.9783 285.5881 0009376 333.3094  26.6827 14.09694129315134
SRMSAT                  
1 37841U 11058D   17324.27012007  .00000343  00000-0  43572-4 0  9999
2 37841  19.9721 268.9654 0011746 356.6647 124.9138 14.10591876315256
YAOGAN 13               
1 37941U 11072A   17324.80902807  .00001215  00000-0  62859-4 0  9999
2 37941  97.4917 251.1130 0002614 102.7827 341.3822 15.18126653331420
PLEIADES 1A             
1 38012U 11076F   17324.82357120 -.00000007  00000-0  82087-5 0  9992
2 38012  98.1855  37.7954 0001494  87.8329 272.3033 14.58561980315693
ZIYUAN 1-02C (ZY 1-02C) 
1 38038U 11079A   17324.83012150  .00000083  00000-0  43554-4 0  9993
2 38038  98.3250  23.4840 0001631  63.3581 296.7756 14.35455042309972
